ORBCOMM-X               
1 21576U 91050C   25318.11942531  .00001022  00000+0  31552-3 0  9994
2 21576  98.3268  21.5394 0004826  93.7771 266.3971 14.43402293803745
ORBCOMM FM01            
1 23545U 95017A   25318.27499317  .00012422  00000+0  12148-2 0  9990
2 23545  69.9630  59.3216 0000988  17.5711 342.5479 14.92485325634883
ORBCOMM FM02            
1 23546U 95017B   25318.31099008  .00013220  00000+0  12473-2 0  9997
2 23546  69.9634  78.0191 0002080  63.3931 296.7438 14.93890412634553
ORBCOMM FM08            
1 25112U 97084A   25318.23530242  .00003903  00000+0  11141-2 0  9993
2 25112  45.0144   7.2760 0008199 279.9937  79.9990 14.46437928463099
ORBCOMM FM10            
1 25113U 97084B   25318.17032464  .00004882  00000+0  13903-2 0  9995
2 25113  45.0156  10.2415 0006941 253.4235 106.5855 14.46201550638221
ORBCOMM FM11            
1 25114U 97084C   25318.20126074  .00003518  00000+0  10187-2 0  9997
2 25114  45.0142  11.0023 0007781 254.7056 105.2935 14.45938128463182
ORBCOMM FM12            
1 25115U 97084D   25317.53985650  .00005142  00000+0  14697-2 0  9991
2 25115  45.0149  13.9137 0006811 249.4593 110.5528 14.45957986462883
ORBCOMM FM09            
1 25116U 97084E   25318.20778558  .00003586  00000+0  10403-2 0  9995
2 25116  45.0154  11.7983 0008006 243.9767 116.0260 14.45813348463186
