<?xml version="1.0" encoding="UTF-8"?>
<ndm xmlns:xsi="http://www.w3.org/2001/XMLSchema-instance" xsi:noNamespaceSchemaLocation="https://sanaregistry.org/r/ndmxml_unqualified/ndmxml-2.0.0-master-2.0.xsd">
<omm id="CCSDS_OMM_VERS" version="2.0">
<header><CREATION_DATE/><ORIGINATOR/></header><body><segment><metadata><OBJECT_NAME>ORBCOMM-X</OBJECT_NAME><OBJECT_ID>1991-050C</OBJECT_ID><CENTER_NAME>EARTH</CENTER_NAME><REF_FRAME>TEME</REF_FRAME><TIME_SYSTEM>UTC</TIME_SYSTEM><MEAN_ELEMENT_THEORY>SGP4</MEAN_ELEMENT_THEORY></metadata><data><meanElements><EPOCH>2025-11-14T02:51:58.346784</EPOCH><MEAN_MOTION>14.43402293</MEAN_MOTION><ECCENTRICITY>.00048265</ECCENTRICITY><INCLINATION>98.3268</INCLINATION><RA_OF_ASC_NODE>21.5394</RA_OF_ASC_NODE><ARG_OF_PERICENTER>93.7771</ARG_OF_PERICENTER><MEAN_ANOMALY>266.3971</MEAN_ANOMALY></meanElements><tleParameters><EPHEMERIS_TYPE>0</EPHEMERIS_TYPE><CLASSIFICATION_TYPE>U</CLASSIFICATION_TYPE><NORAD_CAT_ID>21576</NORAD_CAT_ID><ELEMENT_SET_NO>999</ELEMENT_SET_NO><REV_AT_EPOCH>80374</REV_AT_EPOCH><BSTAR>.31551525E-3</BSTAR><MEAN_MOTION_DOT>.1022E-4</MEAN_MOTION_DOT><MEAN_MOTION_DDOT>0</MEAN_MOTION_DDOT></tleParameters></data></segment></body></omm>
<omm id="CCSDS_OMM_VERS" version="2.0">
<header><CREATION_DATE/><ORIGINATOR/></header><body><segment><metadata><OBJECT_NAME>ORBCOMM FM01</OBJECT_NAME><OBJECT_ID>1995-017A</OBJECT_ID><CENTER_NAME>EARTH</CENTER_NAME><REF_FRAME>TEME</REF_FRAME><TIME_SYSTEM>UTC</TIME_SYSTEM><MEAN_ELEMENT_THEORY>SGP4</MEAN_ELEMENT_THEORY></metadata><data><meanElements><EPOCH>2025-11-14T06:35:59.409888</EPOCH><MEAN_MOTION>14.92485325</MEAN_MOTION><ECCENTRICITY>.00009886</ECCENTRICITY><INCLINATION>69.9630</INCLINATION><RA_OF_ASC_NODE>59.3216</RA_OF_ASC_NODE><ARG_OF_PERICENTER>17.5711</ARG_OF_PERICENTER><MEAN_ANOMALY>342.5479</MEAN_ANOMALY></meanElements><tleParameters><EPHEMERIS_TYPE>0</EPHEMERIS_TYPE><CLASSIFICATION_TYPE>U</CLASSIFICATION_TYPE><NORAD_CAT_ID>23545</NORAD_CAT_ID><ELEMENT_SET_NO>999</ELEMENT_SET_NO><REV_AT_EPOCH>63488</REV_AT_EPOCH><BSTAR>.12148433E-2</BSTAR><MEAN_MOTION_DOT>.12422E-3</MEAN_MOTION_DOT><MEAN_MOTION_DDOT>0</MEAN_MOTION_DDOT></tleParameters></data></segment></body></omm>
<omm id="CCSDS_OMM_VERS" version="2.0">
<header><CREATION_DATE/><ORIGINATOR/></header><body><segment><metadata><OBJECT_NAME>ORBCOMM FM02</OBJECT_NAME><OBJECT_ID>1995-017B</OBJECT_ID><CENTER_NAME>EARTH</CENTER_NAME><REF_FRAME>TEME</REF_FRAME><TIME_SYSTEM>UTC</TIME_SYSTEM><MEAN_ELEMENT_THEORY>SGP4</MEAN_ELEMENT_THEORY></metadata><data><meanElements><EPOCH>2025-11-14T07:27:49.542912</EPOCH><MEAN_MOTION>14.93890412</MEAN_MOTION><ECCENTRICITY>.00020807</ECCENTRICITY><INCLINATION>69.9634</INCLINATION><RA_OF_ASC_NODE>78.0191</RA_OF_ASC_NODE><ARG_OF_PERICENTER>63.3931</ARG_OF_PERICENTER><MEAN_ANOMALY>296.7438</MEAN_ANOMALY></meanElements><tleParameters><EPHEMERIS_TYPE>0</EPHEMERIS_TYPE><CLASSIFICATION_TYPE>U</CLASSIFICATION_TYPE><NORAD_CAT_ID>23546</NORAD_CAT_ID><ELEMENT_SET_NO>999</ELEMENT_SET_NO><REV_AT_EPOCH>63455</REV_AT_EPOCH><BSTAR>.12472768E-2</BSTAR><MEAN_MOTION_DOT>.1322E-3</MEAN_MOTION_DOT><MEAN_MOTION_DDOT>0</MEAN_MOTION_DDOT></tleParameters></data></segment></body></omm>
<omm id="CCSDS_OMM_VERS" version="2.0">
<header><CREATION_DATE/><ORIGINATOR/></header><body><segment><metadata><OBJECT_NAME>ORBCOMM FM08</OBJECT_NAME><OBJECT_ID>1997-084A</OBJECT_ID><CENTER_NAME>EARTH</CENTER_NAME><REF_FRAME>TEME</REF_FRAME><TIME_SYSTEM>UTC</TIME_SYSTEM><MEAN_ELEMENT_THEORY>SGP4</MEAN_ELEMENT_THEORY></metadata><data><meanElements><EPOCH>2025-11-14T05:38:50.129088</EPOCH><MEAN_MOTION>14.46437928</MEAN_MOTION><ECCENTRICITY>.00081996</ECCENTRICITY><INCLINATION>45.0144</INCLINATION><RA_OF_ASC_NODE>7.2760</RA_OF_ASC_NODE><ARG_OF_PERICENTER>279.9937</ARG_OF_PERICENTER><MEAN_ANOMALY>79.9990</MEAN_ANOMALY></meanElements><tleParameters><EPHEMERIS_TYPE>0</EPHEMERIS_TYPE><CLASSIFICATION_TYPE>U</CLASSIFICATION_TYPE><NORAD_CAT_ID>25112</NORAD_CAT_ID><ELEMENT_SET_NO>999</ELEMENT_SET_NO><REV_AT_EPOCH>46309</REV_AT_EPOCH><BSTAR>.11140846E-2</BSTAR><MEAN_MOTION_DOT>.3903E-4</MEAN_MOTION_DOT><MEAN_MOTION_DDOT>0</MEAN_MOTION_DDOT></tleParameters></data></segment></body></omm>
<omm id="CCSDS_OMM_VERS" version="2.0">
<header><CREATION_DATE/><ORIGINATOR/></header><body><segment><metadata><OBJECT_NAME>ORBCOMM FM10</OBJECT_NAME><OBJECT_ID>1997-084B</OBJECT_ID><CENTER_NAME>EARTH</CENTER_NAME><REF_FRAME>TEME</REF_FRAME><TIME_SYSTEM>UTC</TIME_SYSTEM><MEAN_ELEMENT_THEORY>SGP4</MEAN_ELEMENT_THEORY></metadata><data><meanElements><EPOCH>2025-11-14T04:05:16.048896</EPOCH><MEAN_MOTION>14.46201550</MEAN_MOTION><ECCENTRICITY>.00069419</ECCENTRICITY><INCLINATION>45.0156</INCLINATION><RA_OF_ASC_NODE>10.2415</RA_OF_ASC_NODE><ARG_OF_PERICENTER>253.4235</ARG_OF_PERICENTER><MEAN_ANOMALY>106.5855</MEAN_ANOMALY></meanElements><tleParameters><EPHEMERIS_TYPE>0</EPHEMERIS_TYPE><CLASSIFICATION_TYPE>U</CLASSIFICATION_TYPE><NORAD_CAT_ID>25113</NORAD_CAT_ID><ELEMENT_SET_NO>999</ELEMENT_SET_NO><REV_AT_EPOCH>63822</REV_AT_EPOCH><BSTAR>.13903145E-2</BSTAR><MEAN_MOTION_DOT>.4882E-4</MEAN_MOTION_DOT><MEAN_MOTION_DDOT>0</MEAN_MOTION_DDOT></tleParameters></data></segment></body></omm>
<omm id="CCSDS_OMM_VERS" version="2.0">
<header><CREATION_DATE/><ORIGINATOR/></header><body><segment><metadata><OBJECT_NAME>ORBCOMM FM11</OBJECT_NAME><OBJECT_ID>1997-084C</OBJECT_ID><CENTER_NAME>EARTH</CENTER_NAME><REF_FRAME>TEME</REF_FRAME><TIME_SYSTEM>UTC</TIME_SYSTEM><MEAN_ELEMENT_THEORY>SGP4</MEAN_ELEMENT_THEORY></metadata><data><meanElements><EPOCH>2025-11-14T04:49:48.927936</EPOCH><MEAN_MOTION>14.45938128</MEAN_MOTION><ECCENTRICITY>.00077818</ECCENTRICITY><INCLINATION>45.0142</INCLINATION><RA_OF_ASC_NODE>11.0023</RA_OF_ASC_NODE><ARG_OF_PERICENTER>254.7056</ARG_OF_PERICENTER><MEAN_ANOMALY>105.2935</MEAN_ANOMALY></meanElements><tleParameters><EPHEMERIS_TYPE>0</EPHEMERIS_TYPE><CLASSIFICATION_TYPE>U</CLASSIFICATION_TYPE><NORAD_CAT_ID>25114</NORAD_CAT_ID><ELEMENT_SET_NO>999</ELEMENT_SET_NO><REV_AT_EPOCH>46318</REV_AT_EPOCH><BSTAR>.1018712E-2</BSTAR><MEAN_MOTION_DOT>.3518E-4</MEAN_MOTION_DOT><MEAN_MOTION_DDOT>0</MEAN_MOTION_DDOT></tleParameters></data></segment></body></omm>
<omm id="CCSDS_OMM_VERS" version="2.0">
<header><CREATION_DATE/><ORIGINATOR/></header><body><segment><metadata><OBJECT_NAME>ORBCOMM FM12</OBJECT_NAME><OBJECT_ID>1997-084D</OBJECT_ID><CENTER_NAME>EARTH</CENTER_NAME><REF_FRAME>TEME</REF_FRAME><TIME_SYSTEM>UTC</TIME_SYSTEM><MEAN_ELEMENT_THEORY>SGP4</MEAN_ELEMENT_THEORY></metadata><data><meanElements><EPOCH>2025-11-13T12:57:23.601600</EPOCH><MEAN_MOTION>14.45957986</MEAN_MOTION><ECCENTRICITY>.0006811</ECCENTRICITY><INCLINATION>45.0149</INCLINATION><RA_OF_ASC_NODE>13.9137</RA_OF_ASC_NODE><ARG_OF_PERICENTER>249.4593</ARG_OF_PERICENTER><MEAN_ANOMALY>110.5528</MEAN_ANOMALY></meanElements><tleParameters><EPHEMERIS_TYPE>0</EPHEMERIS_TYPE><CLASSIFICATION_TYPE>U</CLASSIFICATION_TYPE><NORAD_CAT_ID>25115</NORAD_CAT_ID><ELEMENT_SET_NO>999</ELEMENT_SET_NO><REV_AT_EPOCH>46288</REV_AT_EPOCH><BSTAR>.14697E-2</BSTAR><MEAN_MOTION_DOT>.5142E-4</MEAN_MOTION_DOT><MEAN_MOTION_DDOT>0</MEAN_MOTION_DDOT></tleParameters></data></segment></body></omm>
<omm id="CCSDS_OMM_VERS" version="2.0">
<header><CREATION_DATE/><ORIGINATOR/></header><body><segment><metadata><OBJECT_NAME>ORBCOMM FM09</OBJECT_NAME><OBJECT_ID>1997-084E</OBJECT_ID><CENTER_NAME>EARTH</CENTER_NAME><REF_FRAME>TEME</REF_FRAME><TIME_SYSTEM>UTC</TIME_SYSTEM><MEAN_ELEMENT_THEORY>SGP4</MEAN_ELEMENT_THEORY></metadata><data><meanElements><EPOCH>2025-11-14T04:59:12.674112</EPOCH><MEAN_MOTION>14.45813348</MEAN_MOTION><ECCENTRICITY>.00080069</ECCENTRICITY><INCLINATION>45.0154</INCLINATION><RA_OF_ASC_NODE>11.7983</RA_OF_ASC_NODE><ARG_OF_PERICENTER>243.9767</ARG_OF_PERICENTER><MEAN_ANOMALY>116.0260</MEAN_ANOMALY></meanElements><tleParameters><EPHEMERIS_TYPE>0</EPHEMERIS_TYPE><CLASSIFICATION_TYPE>U</CLASSIFICATION_TYPE><NORAD_CAT_ID>25116</NORAD_CAT_ID><ELEMENT_SET_NO>999</ELEMENT_SET_NO><REV_AT_EPOCH>46318</REV_AT_EPOCH><BSTAR>.10403383E-2</BSTAR><MEAN_MOTION_DOT>.3586E-4</MEAN_MOTION_DOT><MEAN_MOTION_DDOT>0</MEAN_MOTION_DDOT></tleParameters></data></segment></body></omm>

</ndm>
